[{"OBJECT_NAME":"STARLINK-2609","OBJECT_ID":"2021-038W","EPOCH":"2026-03-10T01:19:51.308544","MEAN_MOTION":15.30182269,"ECCENTRICITY":0.00010142,"INCLINATION":53.1598,"RA_OF_ASC_NODE":343.7983,"ARG_OF_PERICENTER":72.904,"MEAN_ANOMALY":287.2072,"EPHEMERIS_TYPE":0,"CLASSIFICATION_TYPE":"U","NORAD_CAT_ID":48373,"ELEMENT_SET_NO":999,"REV_AT_EPOCH":26731,"BSTAR":-3.9352521e-5,"MEAN_MOTION_DOT":-1.524e-5,"MEAN_MOTION_DDOT":0},{"OBJECT_NAME":"STARLINK-2604","OBJECT_ID":"2021-038X","EPOCH":"2026-03-10T02:01:35.691168","MEAN_MOTION":15.30228334,"ECCENTRICITY":7.842e-5,"INCLINATION":53.1604,"RA_OF_ASC_NODE":345.9656,"ARG_OF_PERICENTER":93.2189,"MEAN_ANOMALY":266.8902,"EPHEMERIS_TYPE":0,"CLASSIFICATION_TYPE":"U","NORAD_CAT_ID":48374,"ELEMENT_SET_NO":999,"REV_AT_EPOCH":26728,"BSTAR":0.00032350252,"MEAN_MOTION_DOT":9.242e-5,"MEAN_MOTION_DDOT":0},{"OBJECT_NAME":"STARLINK-2603","OBJECT_ID":"2021-038Y","EPOCH":"2026-03-10T01:58:36.262560","MEAN_MOTION":15.30187196,"ECCENTRICITY":0.00014648,"INCLINATION":53.1602,"RA_OF_ASC_NODE":345.9733,"ARG_OF_PERICENTER":89.8377,"MEAN_ANOMALY":270.2792,"EPHEMERIS_TYPE":0,"CLASSIFICATION_TYPE":"U","NORAD_CAT_ID":48375,"ELEMENT_SET_NO":999,"REV_AT_EPOCH":26728,"BSTAR":-0.00012719573,"MEAN_MOTION_DOT":-4.123e-5,"MEAN_MOTION_DDOT":0},{"OBJECT_NAME":"STARLINK-2610","OBJECT_ID":"2021-038Z","EPOCH":"2026-03-10T00:19:58.395648","MEAN_MOTION":15.30183217,"ECCENTRICITY":0.00017608,"INCLINATION":53.1589,"RA_OF_ASC_NODE":346.2963,"ARG_OF_PERICENTER":150.1973,"MEAN_ANOMALY":209.9128,"EPHEMERIS_TYPE":0,"CLASSIFICATION_TYPE":"U","NORAD_CAT_ID":48376,"ELEMENT_SET_NO":999,"REV_AT_EPOCH":26727,"BSTAR":0.00046562552,"MEAN_MOTION_DOT":0.00013449,"MEAN_MOTION_DDOT":0},{"OBJECT_NAME":"STARLINK-2499","OBJECT_ID":"2021-038AA","EPOCH":"2026-03-10T00:10:51.818880","MEAN_MOTION":15.30191686,"ECCENTRICITY":0.00020818,"INCLINATION":53.1598,"RA_OF_ASC_NODE":346.3269,"ARG_OF_PERICENTER":155.4769,"MEAN_ANOMALY":204.6331,"EPHEMERIS_TYPE":0,"CLASSIFICATION_TYPE":"U","NORAD_CAT_ID":48377,"ELEMENT_SET_NO":999,"REV_AT_EPOCH":26727,"BSTAR":-4.4839705e-5,"MEAN_MOTION_DOT":-1.687e-5,"MEAN_MOTION_DDOT":0},{"OBJECT_NAME":"STARLINK-2526","OBJECT_ID":"2021-038AB","EPOCH":"2026-03-10T00:15:26.652096","MEAN_MOTION":15.30189181,"ECCENTRICITY":0.00011823,"INCLINATION":53.1619,"RA_OF_ASC_NODE":346.3511,"ARG_OF_PERICENTER":100.5276,"MEAN_ANOMALY":259.5858,"EPHEMERIS_TYPE":0,"CLASSIFICATION_TYPE":"U","NORAD_CAT_ID":48378,"ELEMENT_SET_NO":999,"REV_AT_EPOCH":26727,"BSTAR":-1.1542064e-5,"MEAN_MOTION_DOT":-7.01e-6,"MEAN_MOTION_DDOT":0},{"OBJECT_NAME":"STARLINK-2612","OBJECT_ID":"2021-038AC","EPOCH":"2026-03-10T04:32:34.458144","MEAN_MOTION":15.30180916,"ECCENTRICITY":0.00012424,"INCLINATION":53.1597,"RA_OF_ASC_NODE":343.425,"ARG_OF_PERICENTER":87.9015,"MEAN_ANOMALY":272.2128,"EPHEMERIS_TYPE":0,"CLASSIFICATION_TYPE":"U","NORAD_CAT_ID":48379,"ELEMENT_SET_NO":999,"REV_AT_EPOCH":26733,"BSTAR":9.1390998e-5,"MEAN_MOTION_DOT":2.347e-5,"MEAN_MOTION_DDOT":0},{"OBJECT_NAME":"STARLINK-2614","OBJECT_ID":"2021-038AD","EPOCH":"2026-03-10T10:57:51.721632","MEAN_MOTION":15.30187515,"ECCENTRICITY":0.0001363,"INCLINATION":53.1613,"RA_OF_ASC_NODE":342.0281,"ARG_OF_PERICENTER":85.5893,"MEAN_ANOMALY":274.5263,"EPHEMERIS_TYPE":0,"CLASSIFICATION_TYPE":"U","NORAD_CAT_ID":48380,"ELEMENT_SET_NO":999,"REV_AT_EPOCH":26737,"BSTAR":-1.226e-5,"MEAN_MOTION_DOT":-7.22e-6,"MEAN_MOTION_DDOT":0},{"OBJECT_NAME":"STARLINK-2630","OBJECT_ID":"2021-038AE","EPOCH":"2026-03-10T01:31:16.253184","MEAN_MOTION":15.30186062,"ECCENTRICITY":0.00012202,"INCLINATION":53.1579,"RA_OF_ASC_NODE":346.0504,"ARG_OF_PERICENTER":95.5987,"MEAN_ANOMALY":264.5153,"EPHEMERIS_TYPE":0,"CLASSIFICATION_TYPE":"U","NORAD_CAT_ID":48381,"ELEMENT_SET_NO":999,"REV_AT_EPOCH":26728,"BSTAR":-0.00012377209,"MEAN_MOTION_DOT":-4.021e-5,"MEAN_MOTION_DDOT":0},{"OBJECT_NAME":"STARLINK-2585","OBJECT_ID":"2021-038AF","EPOCH":"2026-03-10T01:26:44.498400","MEAN_MOTION":15.30180663,"ECCENTRICITY":0.00014012,"INCLINATION":53.1586,"RA_OF_ASC_NODE":346.0667,"ARG_OF_PERICENTER":106.0844,"MEAN_ANOMALY":254.0311,"EPHEMERIS_TYPE":0,"CLASSIFICATION_TYPE":"U","NORAD_CAT_ID":48382,"ELEMENT_SET_NO":999,"REV_AT_EPOCH":26728,"BSTAR":0.00023516025,"MEAN_MOTION_DOT":6.608e-5,"MEAN_MOTION_DDOT":0},{"OBJECT_NAME":"STARLINK-2598","OBJECT_ID":"2021-038AJ","EPOCH":"2026-03-10T11:02:21.585120","MEAN_MOTION":15.30166826,"ECCENTRICITY":0.0001431,"INCLINATION":53.1603,"RA_OF_ASC_NODE":341.7898,"ARG_OF_PERICENTER":98.2534,"MEAN_ANOMALY":261.8629,"EPHEMERIS_TYPE":0,"CLASSIFICATION_TYPE":"U","NORAD_CAT_ID":48385,"ELEMENT_SET_NO":999,"REV_AT_EPOCH":26860,"BSTAR":9.2386e-5,"MEAN_MOTION_DOT":2.375e-5,"MEAN_MOTION_DDOT":0},{"OBJECT_NAME":"STARLINK-2606","OBJECT_ID":"2021-038AK","EPOCH":"2026-03-10T12:00:01.999296","MEAN_MOTION":15.29350939,"ECCENTRICITY":0.0001483,"INCLINATION":53.1563,"RA_OF_ASC_NODE":341.7062,"ARG_OF_PERICENTER":114.2799,"MEAN_ANOMALY":247.9798,"EPHEMERIS_TYPE":0,"CLASSIFICATION_TYPE":"U","NORAD_CAT_ID":48386,"ELEMENT_SET_NO":999,"REV_AT_EPOCH":582,"BSTAR":0.0006034,"MEAN_MOTION_DOT":0.00017093,"MEAN_MOTION_DDOT":0},{"OBJECT_NAME":"STARLINK-2594","OBJECT_ID":"2021-038AM","EPOCH":"2026-03-10T04:10:39.025920","MEAN_MOTION":15.29353304,"ECCENTRICITY":0.00012114,"INCLINATION":53.1562,"RA_OF_ASC_NODE":342.9696,"ARG_OF_PERICENTER":114.1115,"MEAN_ANOMALY":246.0012,"EPHEMERIS_TYPE":0,"CLASSIFICATION_TYPE":"U","NORAD_CAT_ID":48388,"ELEMENT_SET_NO":999,"REV_AT_EPOCH":26733,"BSTAR":0.00019288613,"MEAN_MOTION_DOT":5.213e-5,"MEAN_MOTION_DDOT":0},{"OBJECT_NAME":"STARLINK-2586","OBJECT_ID":"2021-038AP","EPOCH":"2026-03-10T02:54:38.219616","MEAN_MOTION":15.30195972,"ECCENTRICITY":0.00014493,"INCLINATION":53.1623,"RA_OF_ASC_NODE":330.6469,"ARG_OF_PERICENTER":118.8834,"MEAN_ANOMALY":241.2313,"EPHEMERIS_TYPE":0,"CLASSIFICATION_TYPE":"U","NORAD_CAT_ID":48390,"ELEMENT_SET_NO":999,"REV_AT_EPOCH":26872,"BSTAR":-0.00014883036,"MEAN_MOTION_DOT":-4.764e-5,"MEAN_MOTION_DDOT":0},{"OBJECT_NAME":"STARLINK-2607","OBJECT_ID":"2021-038AQ","EPOCH":"2026-03-10T00:02:32.259264","MEAN_MOTION":15.29350386,"ECCENTRICITY":0.00011834,"INCLINATION":53.1606,"RA_OF_ASC_NODE":331.3799,"ARG_OF_PERICENTER":92.364,"MEAN_ANOMALY":267.7496,"EPHEMERIS_TYPE":0,"CLASSIFICATION_TYPE":"U","NORAD_CAT_ID":48391,"ELEMENT_SET_NO":999,"REV_AT_EPOCH":26870,"BSTAR":-2.3272597e-5,"MEAN_MOTION_DOT":-1.027e-5,"MEAN_MOTION_DDOT":0},{"OBJECT_NAME":"STARLINK-2605","OBJECT_ID":"2021-038AR","EPOCH":"2026-03-10T02:25:48.333504","MEAN_MOTION":15.30194493,"ECCENTRICITY":0.00011463,"INCLINATION":53.16,"RA_OF_ASC_NODE":330.6247,"ARG_OF_PERICENTER":88.4883,"MEAN_ANOMALY":271.6249,"EPHEMERIS_TYPE":0,"CLASSIFICATION_TYPE":"U","NORAD_CAT_ID":48392,"ELEMENT_SET_NO":999,"REV_AT_EPOCH":26872,"BSTAR":0.00022254245,"MEAN_MOTION_DOT":6.236e-5,"MEAN_MOTION_DDOT":0},{"OBJECT_NAME":"STARLINK-2574","OBJECT_ID":"2021-038AU","EPOCH":"2026-03-10T10:42:39.978720","MEAN_MOTION":15.30182132,"ECCENTRICITY":0.0001112,"INCLINATION":53.1617,"RA_OF_ASC_NODE":331.4184,"ARG_OF_PERICENTER":95.5626,"MEAN_ANOMALY":264.5502,"EPHEMERIS_TYPE":0,"CLASSIFICATION_TYPE":"U","NORAD_CAT_ID":48395,"ELEMENT_SET_NO":999,"REV_AT_EPOCH":26874,"BSTAR":0.00017087,"MEAN_MOTION_DOT":4.702e-5,"MEAN_MOTION_DDOT":0},{"OBJECT_NAME":"STARLINK-2575","OBJECT_ID":"2021-038AV","EPOCH":"2026-03-10T02:12:06.440544","MEAN_MOTION":15.30202998,"ECCENTRICITY":0.00015235,"INCLINATION":53.1604,"RA_OF_ASC_NODE":330.6744,"ARG_OF_PERICENTER":70.3508,"MEAN_ANOMALY":289.7657,"EPHEMERIS_TYPE":0,"CLASSIFICATION_TYPE":"U","NORAD_CAT_ID":48396,"ELEMENT_SET_NO":999,"REV_AT_EPOCH":26872,"BSTAR":0.00035268331,"MEAN_MOTION_DOT":0.00010101,"MEAN_MOTION_DDOT":0},{"OBJECT_NAME":"STARLINK-2590","OBJECT_ID":"2021-038AW","EPOCH":"2026-03-10T02:21:15.784704","MEAN_MOTION":15.30182629,"ECCENTRICITY":0.00011486,"INCLINATION":53.162,"RA_OF_ASC_NODE":330.744,"ARG_OF_PERICENTER":84.842,"MEAN_ANOMALY":275.2712,"EPHEMERIS_TYPE":0,"CLASSIFICATION_TYPE":"U","NORAD_CAT_ID":48397,"ELEMENT_SET_NO":999,"REV_AT_EPOCH":26872,"BSTAR":9.375064e-6,"MEAN_MOTION_DOT":-8.2e-7,"MEAN_MOTION_DDOT":0},{"OBJECT_NAME":"STARLINK-2588","OBJECT_ID":"2021-038AX","EPOCH":"2026-03-10T03:21:02.309184","MEAN_MOTION":15.15126244,"ECCENTRICITY":0.00059895,"INCLINATION":53.0728,"RA_OF_ASC_NODE":336.842,"ARG_OF_PERICENTER":114.8763,"MEAN_ANOMALY":245.2853,"EPHEMERIS_TYPE":0,"CLASSIFICATION_TYPE":"U","NORAD_CAT_ID":48398,"ELEMENT_SET_NO":999,"REV_AT_EPOCH":26863,"BSTAR":0.0022223249,"MEAN_MOTION_DOT":0.00042092,"MEAN_MOTION_DDOT":0},{"OBJECT_NAME":"STARLINK-2587","OBJECT_ID":"2021-038AY","EPOCH":"2026-03-10T09:54:47.777472","MEAN_MOTION":15.30215525,"ECCENTRICITY":0.0001176,"INCLINATION":53.1596,"RA_OF_ASC_NODE":329.2417,"ARG_OF_PERICENTER":91.8694,"MEAN_ANOMALY":268.2441,"EPHEMERIS_TYPE":0,"CLASSIFICATION_TYPE":"U","NORAD_CAT_ID":48399,"ELEMENT_SET_NO":999,"REV_AT_EPOCH":26876,"BSTAR":0.00028341,"MEAN_MOTION_DOT":8.048e-5,"MEAN_MOTION_DDOT":0},{"OBJECT_NAME":"STARLINK-2576","OBJECT_ID":"2021-038AZ","EPOCH":"2026-03-10T00:27:29.095200","MEAN_MOTION":15.30184551,"ECCENTRICITY":0.00011686,"INCLINATION":53.1593,"RA_OF_ASC_NODE":331.0865,"ARG_OF_PERICENTER":78.9402,"MEAN_ANOMALY":281.173,"EPHEMERIS_TYPE":0,"CLASSIFICATION_TYPE":"U","NORAD_CAT_ID":48400,"ELEMENT_SET_NO":999,"REV_AT_EPOCH":26749,"BSTAR":-1.1717638e-5,"MEAN_MOTION_DOT":-7.06e-6,"MEAN_MOTION_DDOT":0},{"OBJECT_NAME":"STARLINK-2571","OBJECT_ID":"2021-038BA","EPOCH":"2026-03-10T00:08:40.259328","MEAN_MOTION":15.2934798,"ECCENTRICITY":0.00012631,"INCLINATION":53.1598,"RA_OF_ASC_NODE":331.3402,"ARG_OF_PERICENTER":101.6899,"MEAN_ANOMALY":258.4244,"EPHEMERIS_TYPE":0,"CLASSIFICATION_TYPE":"U","NORAD_CAT_ID":48401,"ELEMENT_SET_NO":999,"REV_AT_EPOCH":26748,"BSTAR":-0.00016511262,"MEAN_MOTION_DOT":-5.116e-5,"MEAN_MOTION_DDOT":0}]
